[
  {
    "name": "KUIPER-00615",
    "noradId": "69774",
    "line1": "1 69774U 26151M   26191.58337963  .00015209  00000+0  42111-3 0  9999",
    "line2": "2 69774  51.8771 202.6941 0006040 131.2008 292.1885 15.37165030  1303"
  },
  {
    "name": "KUIPER-00616",
    "noradId": "69775",
    "line1": "1 69775U 26151N   26191.58337963  .00015201  00000+0  40560-3 0  9998",
    "line2": "2 69775  51.8784 202.6293 0003071 105.2519 349.3016 15.38322992  1301"
  },
  {
    "name": "KUIPER-00617",
    "noradId": "69776",
    "line1": "1 69776U 26151P   26191.58337963  .00015228  00000+0  41441-3 0  9997",
    "line2": "2 69776  51.8795 202.6534 0003976 119.2305 322.1884 15.37709797  1307"
  },
  {
    "name": "KUIPER-00619",
    "noradId": "69777",
    "line1": "1 69777U 26151Q   26191.58337963  .00014982  00000+0  39804-3 0  9994",
    "line2": "2 69777  51.8803 202.6048 0001741  45.5179  57.9157 15.38470517  1331"
  },
  {
    "name": "KUIPER-00621",
    "noradId": "69778",
    "line1": "1 69778U 26151R   26191.58337963  .00015261  00000+0  40800-3 0  9994",
    "line2": "2 69778  51.8794 202.6237 0001941  95.0058   1.3272 15.38261374  2082"
  },
  {
    "name": "KUIPER-00622",
    "noradId": "69779",
    "line1": "1 69779U 26151S   26191.58337963  .00014163  00000+0  39589-3 0  9997",
    "line2": "2 69779  51.8730 202.7078 0006792 132.4819 285.3215 15.36927578  1945"
  },
  {
    "name": "KUIPER-00623",
    "noradId": "69780",
    "line1": "1 69780U 26151T   26191.58337963  .00015314  00000+0  42126-3 0  9999",
    "line2": "2 69780  51.8776 202.6744 0004953 118.7177 314.0265 15.37367188  2062"
  },
  {
    "name": "KUIPER-00626",
    "noradId": "69781",
    "line1": "1 69781U 26151U   26191.58337963  .00012526  00000+0  36465-3 0  9991",
    "line2": "2 69781  51.8711 202.7661 0010044 149.6834 239.3982 15.35745587  2305"
  },
  {
    "name": "KUIPER-00627",
    "noradId": "69782",
    "line1": "1 69782U 26151V   26191.58337963  .00012685  00000+0  37213-3 0  9990",
    "line2": "2 69782  51.8684 202.7818 0011196 152.5729 228.7447 15.35478769  1306"
  },
  {
    "name": "KUIPER-00629",
    "noradId": "69783",
    "line1": "1 69783U 26151W   26191.58337963  .00014607  00000+0  40821-3 0  9996",
    "line2": "2 69783  51.8741 202.7118 0007306 132.1058 283.4407 15.36904092  1635"
  },
  {
    "name": "KUIPER-00631",
    "noradId": "69784",
    "line1": "1 69784U 26151X   26191.58337963  .00014461  00000+0  40714-3 0  9996",
    "line2": "2 69784  51.8708 202.7265 0007848 139.7098 268.9682 15.36675811  1301"
  },
  {
    "name": "KUIPER-00634",
    "noradId": "69785",
    "line1": "1 69785U 26151Y   26191.58337963  .00014908  00000+0  40647-3 0  9998",
    "line2": "2 69785  51.8769 202.6620 0003657 119.5681 319.7456 15.37668705  1300"
  },
  {
    "name": "KUIPER-00639",
    "noradId": "69786",
    "line1": "1 69786U 26151Z   26191.58337963  .00011371  00000+0  32898-3 0  9999",
    "line2": "2 69786  51.8683 202.7530 0009568 145.1144 250.5690 15.36047615  1305"
  },
  {
    "name": "KUIPER-00641",
    "noradId": "69787",
    "line1": "1 69787U 26151AA  26191.58337963  .00022354  00000+0  65166-3 0  9997",
    "line2": "2 69787  51.8670 202.7804 0010749 147.3949 234.5656 15.35234477  1943"
  },
  {
    "name": "KUIPER-00644",
    "noradId": "69788",
    "line1": "1 69788U 26151AB  26191.58337963  .00013105  00000+0  37214-3 0  9995",
    "line2": "2 69788  51.8733 202.7374 0008539 142.2546 260.9190 15.36492956  2246"
  },
  {
    "name": "KUIPER-00646",
    "noradId": "69789",
    "line1": "1 69789U 26151AC  26191.58337963  .00014154  00000+0  40772-3 0  9994",
    "line2": "2 69789  51.8696 202.7495 0009561 145.3748 251.9346 15.35966015  1303"
  },
  {
    "name": "KUIPER-00647",
    "noradId": "69790",
    "line1": "1 69790U 26151AD  26191.58337963  .00010982  00000+0  32211-3 0  9990",
    "line2": "2 69790  51.8658 202.7759 0010774 148.9553 235.1020 15.35641389  2080"
  },
  {
    "name": "KUIPER-00662",
    "noradId": "69791",
    "line1": "1 69791U 26151AE  26191.58337963  .00014192  00000+0  40084-3 0  9995",
    "line2": "2 69791  51.8720 202.7318 0008496 137.2544 268.7575 15.36588422  1301"
  }
]