OBJECT_NAME,OBJECT_ID,EPOCH,MEAN_MOTION,ECCENTRICITY,INCLINATION,RA_OF_ASC_NODE,ARG_OF_PERICENTER,MEAN_ANOMALY,EPHEMERIS_TYPE,CLASSIFICATION_TYPE,NORAD_CAT_ID,ELEMENT_SET_NO,REV_AT_EPOCH,BSTAR,MEAN_MOTION_DOT,MEAN_MOTION_DDOT
KUIPER-00615,2026-151M,2026-07-10T14:00:04.000032,15.37165030,.000604,51.8771,202.6941,131.2008,292.1885,0,U,69774,999,130,.42111485E-3,.15209E-3,0
KUIPER-00616,2026-151N,2026-07-10T14:00:04.000032,15.38322992,.00030713,51.8784,202.6293,105.2519,349.3016,0,U,69775,999,130,.40560323E-3,.15201E-3,0
KUIPER-00617,2026-151P,2026-07-10T14:00:04.000032,15.37709797,.00039762,51.8795,202.6534,119.2305,322.1884,0,U,69776,999,130,.41440942E-3,.15228E-3,0
KUIPER-00619,2026-151Q,2026-07-10T14:00:04.000032,15.38470517,.00017411,51.8803,202.6048,45.5179,57.9157,0,U,69777,999,133,.39804435E-3,.14982E-3,0
KUIPER-00621,2026-151R,2026-07-10T14:00:04.000032,15.38261374,.00019411,51.8794,202.6237,95.0058,1.3272,0,U,69778,999,208,.40799725E-3,.15261E-3,0
KUIPER-00622,2026-151S,2026-07-10T14:00:04.000032,15.36927578,.00067922,51.8730,202.7078,132.4819,285.3215,0,U,69779,999,194,.39588629E-3,.14163E-3,0
KUIPER-00623,2026-151T,2026-07-10T14:00:04.000032,15.37367188,.00049531,51.8776,202.6744,118.7177,314.0265,0,U,69780,999,206,.42126247E-3,.15314E-3,0
KUIPER-00626,2026-151U,2026-07-10T14:00:04.000032,15.35745587,.00100444,51.8711,202.7661,149.6834,239.3982,0,U,69781,999,230,.36464846E-3,.12526E-3,0
KUIPER-00627,2026-151V,2026-07-10T14:00:04.000032,15.35478769,.00111963,51.8684,202.7818,152.5729,228.7447,0,U,69782,999,130,.37213384E-3,.12685E-3,0
KUIPER-00629,2026-151W,2026-07-10T14:00:04.000032,15.36904092,.00073066,51.8741,202.7118,132.1058,283.4407,0,U,69783,999,163,.40820691E-3,.14607E-3,0
KUIPER-00631,2026-151X,2026-07-10T14:00:04.000032,15.36675811,.00078487,51.8708,202.7265,139.7098,268.9682,0,U,69784,999,130,.40714153E-3,.14461E-3,0
KUIPER-00634,2026-151Y,2026-07-10T14:00:04.000032,15.37668705,.00036571,51.8769,202.6620,119.5681,319.7456,0,U,69785,999,130,.40647101E-3,.14908E-3,0
KUIPER-00639,2026-151Z,2026-07-10T14:00:04.000032,15.36047615,.00095682,51.8683,202.7530,145.1144,250.5690,0,U,69786,999,130,.3289751E-3,.11371E-3,0
KUIPER-00641,2026-151AA,2026-07-10T14:00:04.000032,15.35234477,.0010749,51.8670,202.7804,147.3949,234.5656,0,U,69787,999,194,.65166275E-3,.22354E-3,0
KUIPER-00644,2026-151AB,2026-07-10T14:00:04.000032,15.36492956,.00085398,51.8733,202.7374,142.2546,260.9190,0,U,69788,999,224,.37214165E-3,.13105E-3,0
KUIPER-00646,2026-151AC,2026-07-10T14:00:04.000032,15.35966015,.0009561,51.8696,202.7495,145.3748,251.9346,0,U,69789,999,130,.40772326E-3,.14154E-3,0
KUIPER-00647,2026-151AD,2026-07-10T14:00:04.000032,15.35641389,.0010774,51.8658,202.7759,148.9553,235.1020,0,U,69790,999,208,.32211441E-3,.10982E-3,0
KUIPER-00662,2026-151AE,2026-07-10T14:00:04.000032,15.36588422,.00084963,51.8720,202.7318,137.2544,268.7575,0,U,69791,999,130,.40084095E-3,.14192E-3,0
